start=new Date('2022-03-18T00:00:00.000Z').valueOf();
sats=[{"MEAN_MOTION":"15.37310379","INCLINATION":"53.2173","ELEMENT_SET_NO":"999","REF_FRAME":"TEME","TLE_LINE1":"1 49764U 21115AS  22076.91667824 -.00654063  00000-0 -18933-1 0  9991","TLE_LINE2":"2 49764  53.2173 182.7637 0004614 332.1590 301.1786 15.37310379  3643","LAUNCH_DATE":"2021-12-02","TIME_SYSTEM":"UTC","RCS_SIZE":"LARGE","OBJECT_TYPE":"PAYLOAD","CENTER_NAME":"EARTH","DECAY_DATE":null,"OBJECT_ID":"2021-115AS","MEAN_ELEMENT_THEORY":"SGP4","CLASSIFICATION_TYPE":"U","NORAD_CAT_ID":"49764","SEMIMAJOR_AXIS":"6832.204","APOAPSIS":"457.221","PERIOD":"93.670","EPHEMERIS_TYPE":"0","REV_AT_EPOCH":"364","MEAN_MOTION_DOT":"-0.00654063","EPOCH":"2022-03-17T22:00:00.999936","GP_ID":"198994668","BSTAR":"-0.01893300000000","ECCENTRICITY":"0.00046140","PERIAPSIS":"450.916","ARG_OF_PERICENTER":"332.1590","COUNTRY_CODE":"US","RA_OF_ASC_NODE":"182.7637","FILE":"3363151","MEAN_ANOMALY":"301.1786","MEAN_MOTION_DDOT":"0.0000000000000","OBJECT_NAME":"STARLINK-3206","SITE":"AFETR"},{"MEAN_ELEMENT_THEORY":"SGP4","CLASSIFICATION_TYPE":"U","OBJECT_ID":"2021-115AT","DECAY_DATE":null,"CENTER_NAME":"EARTH","OBJECT_TYPE":"PAYLOAD","RCS_SIZE":"LARGE","TIME_SYSTEM":"UTC","TLE_LINE2":"2 49765  53.2173 182.7554 0004624 341.0099 300.5107 15.38010044  3643","LAUNCH_DATE":"2021-12-02","ELEMENT_SET_NO":"999","TLE_LINE1":"1 49765U 21115AT  22076.91667824 -.00655209  00000-0 -18540-1 0  9999","REF_FRAME":"TEME","MEAN_MOTION":"15.38010044","INCLINATION":"53.2173","SITE":"AFETR","MEAN_MOTION_DDOT":"0.0000000000000","OBJECT_NAME":"STARLINK-3227","FILE":"3363151","MEAN_ANOMALY":"300.5107","COUNTRY_CODE":"US","ARG_OF_PERICENTER":"341.0099","RA_OF_ASC_NODE":"182.7554","BSTAR":"-0.01854000000000","ECCENTRICITY":"0.00046240","PERIAPSIS":"448.838","GP_ID":"198994418","MEAN_MOTION_DOT":"-0.00655209","EPOCH":"2022-03-17T22:00:00.999936","REV_AT_EPOCH":"364","EPHEMERIS_TYPE":"0","PERIOD":"93.627","APOAPSIS":"455.155","NORAD_CAT_ID":"49765","SEMIMAJOR_AXIS":"6830.131"},{"COUNTRY_CODE":"US","RA_OF_ASC_NODE":"182.7659","ARG_OF_PERICENTER":"332.4232","MEAN_ANOMALY":"297.9076","FILE":"3363151","PERIAPSIS":"451.391","ECCENTRICITY":"0.00049290","BSTAR":"-0.01908100000000","SITE":"AFETR","OBJECT_NAME":"STARLINK-3190","MEAN_MOTION_DDOT":"0.0000000000000","PERIOD":"93.684","EPHEMERIS_TYPE":"0","NORAD_CAT_ID":"49766","SEMIMAJOR_AXIS":"6832.894","APOAPSIS":"458.127","EPOCH":"2022-03-17T22:00:00.999936","MEAN_MOTION_DOT":"-0.00654246","GP_ID":"198993667","REV_AT_EPOCH":"364","CENTER_NAME":"EARTH","OBJECT_TYPE":"PAYLOAD","CLASSIFICATION_TYPE":"U","MEAN_ELEMENT_THEORY":"SGP4","DECAY_DATE":null,"OBJECT_ID":"2021-115AU","MEAN_MOTION":"15.37077490","INCLINATION":"53.2173","REF_FRAME":"TEME","TLE_LINE1":"1 49766U 21115AU  22076.91667824 -.00654246  00000-0 -19081-1 0  9991","ELEMENT_SET_NO":"999","TIME_SYSTEM":"UTC","RCS_SIZE":"LARGE","LAUNCH_DATE":"2021-12-02","TLE_LINE2":"2 49766  53.2173 182.7659 0004929 332.4232 297.9076 15.37077490  3642"},{"EPHEMERIS_TYPE":"0","PERIOD":"93.656","APOAPSIS":"456.555","SEMIMAJOR_AXIS":"6831.510","NORAD_CAT_ID":"49767","GP_ID":"198993917","MEAN_MOTION_DOT":"-0.00655917","EPOCH":"2022-03-17T22:00:00.999936","REV_AT_EPOCH":"364","FILE":"3363151","MEAN_ANOMALY":"293.8916","ARG_OF_PERICENTER":"342.3128","COUNTRY_CODE":"US","RA_OF_ASC_NODE":"182.7613","BSTAR":"-0.01884600000000","ECCENTRICITY":"0.00046550","PERIAPSIS":"450.195","SITE":"AFETR","MEAN_MOTION_DDOT":"0.0000000000000","OBJECT_NAME":"STARLINK-3192","ELEMENT_SET_NO":"999","REF_FRAME":"TEME","TLE_LINE1":"1 49767U 21115AV  22076.91667824 -.00655917  00000-0 -18846-1 0  9996","INCLINATION":"53.2173","MEAN_MOTION":"15.37544408","RCS_SIZE":"LARGE","TIME_SYSTEM":"UTC","TLE_LINE2":"2 49767  53.2173 182.7613 0004655 342.3128 293.8916 15.37544408  3649","LAUNCH_DATE":"2021-12-02","CENTER_NAME":"EARTH","OBJECT_TYPE":"PAYLOAD","MEAN_ELEMENT_THEORY":"SGP4","CLASSIFICATION_TYPE":"U","DECAY_DATE":null,"OBJECT_ID":"2021-115AV"},{"MEAN_MOTION_DOT":"-0.00656268","EPOCH":"2022-03-17T22:00:00.999936","GP_ID":"198994168","REV_AT_EPOCH":"364","PERIOD":"93.713","EPHEMERIS_TYPE":"0","NORAD_CAT_ID":"49768","SEMIMAJOR_AXIS":"6834.272","APOAPSIS":"458.084","SITE":"AFETR","MEAN_MOTION_DDOT":"0.0000000000000","OBJECT_NAME":"STARLINK-3196","COUNTRY_CODE":"US","ARG_OF_PERICENTER":"324.7620","RA_OF_ASC_NODE":"182.7693","FILE":"3363151","MEAN_ANOMALY":"299.1371","BSTAR":"-0.01944700000000","ECCENTRICITY":"0.00028480","PERIAPSIS":"454.191","TIME_SYSTEM":"UTC","RCS_SIZE":"LARGE","TLE_LINE2":"2 49768  53.2173 182.7693 0002848 324.7620 299.1371 15.36612384  3643","LAUNCH_DATE":"2021-12-02","MEAN_MOTION":"15.36612384","INCLINATION":"53.2173","ELEMENT_SET_NO":"999","REF_FRAME":"TEME","TLE_LINE1":"1 49768U 21115AW  22076.91667824 -.00656268  00000-0 -19447-1 0  9995","MEAN_ELEMENT_THEORY":"SGP4","CLASSIFICATION_TYPE":"U","DECAY_DATE":null,"OBJECT_ID":"2021-115AW","CENTER_NAME":"EARTH","OBJECT_TYPE":"PAYLOAD"},{"TIME_SYSTEM":"UTC","RCS_SIZE":"LARGE","LAUNCH_DATE":"2021-12-02","TLE_LINE2":"2 49769  53.2173 182.7678 0005138 318.5856 308.5993 15.36844014  3646","MEAN_MOTION":"15.36844014","INCLINATION":"53.2173","TLE_LINE1":"1 49769U 21115AX  22076.91667824 -.00653450  00000-0 -19200-1 0  9993","REF_FRAME":"TEME","ELEMENT_SET_NO":"999","CLASSIFICATION_TYPE":"U","MEAN_ELEMENT_THEORY":"SGP4","DECAY_DATE":null,"OBJECT_ID":"2021-115AX","CENTER_NAME":"EARTH","OBJECT_TYPE":"PAYLOAD","EPOCH":"2022-03-17T22:00:00.999936","MEAN_MOTION_DOT":"-0.00653450","GP_ID":"198994919","REV_AT_EPOCH":"364","PERIOD":"93.699","EPHEMERIS_TYPE":"0","NORAD_CAT_ID":"49769","SEMIMAJOR_AXIS":"6833.586","APOAPSIS":"458.962","SITE":"AFETR","OBJECT_NAME":"STARLINK-3208","MEAN_MOTION_DDOT":"0.0000000000000","COUNTRY_CODE":"US","ARG_OF_PERICENTER":"318.5856","RA_OF_ASC_NODE":"182.7678","MEAN_ANOMALY":"308.5993","FILE":"3363151","PERIAPSIS":"451.940","BSTAR":"-0.01920000000000","ECCENTRICITY":"0.00051380"},{"EPHEMERIS_TYPE":"0","PERIOD":"93.727","APOAPSIS":"459.331","NORAD_CAT_ID":"49770","SEMIMAJOR_AXIS":"6834.964","GP_ID":"198993167","EPOCH":"2022-03-17T22:00:00.999936","MEAN_MOTION_DOT":"-0.00655753","REV_AT_EPOCH":"364","MEAN_ANOMALY":"298.3087","FILE":"3363151","COUNTRY_CODE":"US","ARG_OF_PERICENTER":"322.1656","RA_OF_ASC_NODE":"182.7706","PERIAPSIS":"454.328","ECCENTRICITY":"0.00036600","BSTAR":"-0.01957400000000","SITE":"AFETR","OBJECT_NAME":"STARLINK-3191","MEAN_MOTION_DDOT":"0.0000000000000","REF_FRAME":"TEME","TLE_LINE1":"1 49770U 21115AY  22076.91667824 -.00655753  00000-0 -19574-1 0  9997","ELEMENT_SET_NO":"999","MEAN_MOTION":"15.36379105","INCLINATION":"53.2173","RCS_SIZE":"LARGE","TIME_SYSTEM":"UTC","LAUNCH_DATE":"2021-12-02","TLE_LINE2":"2 49770  53.2173 182.7706 0003660 322.1656 298.3087 15.36379105  3641","CENTER_NAME":"EARTH","OBJECT_TYPE":"PAYLOAD","CLASSIFICATION_TYPE":"U","MEAN_ELEMENT_THEORY":"SGP4","DECAY_DATE":null,"OBJECT_ID":"2021-115AY"},{"PERIOD":"93.741","EPHEMERIS_TYPE":"0","SEMIMAJOR_AXIS":"6835.656","NORAD_CAT_ID":"49771","APOAPSIS":"460.801","MEAN_MOTION_DOT":"-0.00655138","EPOCH":"2022-03-17T22:00:00.999936","GP_ID":"198993417","REV_AT_EPOCH":"364","COUNTRY_CODE":"US","ARG_OF_PERICENTER":"317.7405","RA_OF_ASC_NODE":"182.7717","FILE":"3363151","MEAN_ANOMALY":"299.1694","BSTAR":"-0.01969600000000","ECCENTRICITY":"0.00047980","PERIAPSIS":"454.242","SITE":"AFETR","MEAN_MOTION_DDOT":"0.0000000000000","OBJECT_NAME":"STARLINK-3201","MEAN_MOTION":"15.36145804","INCLINATION":"53.2173","ELEMENT_SET_NO":"999","REF_FRAME":"TEME","TLE_LINE1":"1 49771U 21115AZ  22076.91667824 -.00655138  00000-0 -19696-1 0  9990","TIME_SYSTEM":"UTC","RCS_SIZE":"LARGE","TLE_LINE2":"2 49771  53.2173 182.7717 0004798 317.7405 299.1694 15.36145804  3649","LAUNCH_DATE":"2021-12-02","CENTER_NAME":"EARTH","OBJECT_TYPE":"PAYLOAD","MEAN_ELEMENT_THEORY":"SGP4","CLASSIFICATION_TYPE":"U","DECAY_DATE":null,"OBJECT_ID":"2021-115AZ"},{"PERIAPSIS":"495.067","BSTAR":"-0.02361600000000","ECCENTRICITY":"0.00019790","COUNTRY_CODE":"US","ARG_OF_PERICENTER":"33.1436","RA_OF_ASC_NODE":"291.4922","MEAN_ANOMALY":"41.7269","FILE":"3363151","OBJECT_NAME":"STARLINK-3317","MEAN_MOTION_DDOT":"0.0000000000000","SITE":"AFWTR","SEMIMAJOR_AXIS":"6874.562","NORAD_CAT_ID":"50156","APOAPSIS":"497.788","PERIOD":"94.543","EPHEMERIS_TYPE":"0","REV_AT_EPOCH":"365","EPOCH":"2022-03-17T22:00:00.999936","MEAN_MOTION_DOT":"-0.00526171","GP_ID":"198993701","OBJECT_TYPE":"PAYLOAD","CENTER_NAME":"EARTH","DECAY_DATE":null,"OBJECT_ID":"2021-125A","CLASSIFICATION_TYPE":"U","MEAN_ELEMENT_THEORY":"SGP4","MEAN_MOTION":"15.23123742","INCLINATION":"53.2176","TLE_LINE1":"1 50156U 21125A   22076.91667824 -.00526171  00000-0 -23616-1 0  9991","REF_FRAME":"TEME","ELEMENT_SET_NO":"999","LAUNCH_DATE":"2021-12-18","TLE_LINE2":"2 50156  53.2176 291.4922 0001979  33.1436  41.7269 15.23123742  3651","TIME_SYSTEM":"UTC","RCS_SIZE":"LARGE"},{"CENTER_NAME":"EARTH","OBJECT_TYPE":"PAYLOAD","MEAN_ELEMENT_THEORY":"SGP4","CLASSIFICATION_TYPE":"U","OBJECT_ID":"2021-125B","DECAY_DATE":null,"INCLINATION":"53.2170","MEAN_MOTION":"15.08839020","ELEMENT_SET_NO":"999","REF_FRAME":"TEME","TLE_LINE1":"1 50157U 21125B   22076.91667824 -.00000271  00000-0  10821-5 0  9997","TIME_SYSTEM":"UTC","RCS_SIZE":"LARGE","TLE_LINE2":"2 50157  53.2170 300.8806 0002002  44.0841 233.1682 15.08839020  3608","LAUNCH_DATE":"2021-12-18","ARG_OF_PERICENTER":"44.0841","COUNTRY_CODE":"US","RA_OF_ASC_NODE":"300.8806","FILE":"3363151","MEAN_ANOMALY":"233.1682","ECCENTRICITY":"0.00020020","BSTAR":"0.00000108210000","PERIAPSIS":"538.363","SITE":"AFWTR","MEAN_MOTION_DDOT":"0.0000000000000","OBJECT_NAME":"STARLINK-3313","PERIOD":"95.438","EPHEMERIS_TYPE":"0","NORAD_CAT_ID":"50157","SEMIMAJOR_AXIS":"6917.883","APOAPSIS":"541.133","MEAN_MOTION_DOT":"-0.00000271","EPOCH":"2022-03-17T22:00:00.999936","GP_ID":"198993951","REV_AT_EPOCH":"360"}];
